{"type": "FeatureCollection", "features": [ {"type": "Feature", "properties": {"norad_id": 29878, "name": "FENGYUN 1C DEB", "group": "fengyun-1c-debris", "lat": 76.4494968514075, "lon": 11.425329828056602, "alt_km": 519.8717448919188, "timestamp": "2025-12-14T16:47:40.955589+00:00", "meta": {"OBJECT_NAME": "FENGYUN 1C DEB", "OBJECT_ID": "1999-025FY", "EPOCH": "2025-12-13T11:43:25.181760", "MEAN_MOTION": 15.10103059, "ECCENTRICITY": 0.00258803, "INCLINATION": 96.9482, "RA_OF_ASC_NODE": 159.9283, "ARG_OF_PERICENTER": 170.7819, "MEAN_ANOMALY": 189.3893, "EPHEMERIS_TYPE": 0, "CLASSIFICATION_TYPE": "U", "NORAD_CAT_ID": 29878, "ELEMENT_SET_NO": 999, "REV_AT_EPOCH": 98659, "BSTAR": 0.010438659, "MEAN_MOTION_DOT": 0.00175307, "MEAN_MOTION_DDOT": 0}, "tle": {"line1": "1 29878U 99025FY  25347.48848590  .00175307  00000+0  10439-1 0  9996", "line2": "2 29878  96.9482 159.9283 0025880 170.7819 189.3893 15.10103059986590"}}, "geometry": {"type": "Point", "coordinates": [11.425329828056602, 76.4494968514075]}}, {"type": "Feature", "properties": {"norad_id": 29880, "name": "FENGYUN 1C DEB", "group": "fengyun-1c-debris", "lat": -57.34686156394569, "lon": 74.02885106111509, "alt_km": 1054.1324368290489, "timestamp": "2025-12-14T16:47:40.955600+00:00", "meta": {"OBJECT_NAME": "FENGYUN 1C DEB", "OBJECT_ID": "1999-025GA", "EPOCH": "2025-12-13T17:33:42.571872", "MEAN_MOTION": 13.93915251, "ECCENTRICITY": 0.02318037, "INCLINATION": 98.1945, "RA_OF_ASC_NODE": 266.1635, "ARG_OF_PERICENTER": 98.7043, "MEAN_ANOMALY": 322.8655, "EPHEMERIS_TYPE": 0, "CLASSIFICATION_TYPE": "U", "NORAD_CAT_ID": 29880, "ELEMENT_SET_NO": 999, "REV_AT_EPOCH": 95576, "BSTAR": 0.0015368567, "MEAN_MOTION_DOT": 2.501e-05, "MEAN_MOTION_DDOT": 0}, "tle": {"line1": "1 29880U 99025GA  25347.73174273  .00002501  00000+0  15369-2 0  9990", "line2": "2 29880  98.1945 266.1635 0231803  98.7043 322.8655 13.93915251955764"}}, "geometry": {"type": "Point", "coordinates": [74.02885106111509, -57.34686156394569]}}, {"type": "Feature", "properties": {"norad_id": 29881, "name": "FENGYUN 1C DEB", "group": "fengyun-1c-debris", "lat": 81.27187151734702, "lon": -128.74160082851776, "alt_km": 829.5057406450178, "timestamp": "2025-12-14T16:47:40.955610+00:00", "meta": {"OBJECT_NAME": "FENGYUN 1C DEB", "OBJECT_ID": "1999-025GB", "EPOCH": "2025-12-12T10:20:16.802592", "MEAN_MOTION": 13.59612495, "ECCENTRICITY": 0.02923221, "INCLINATION": 98.7225, "RA_OF_ASC_NODE": 318.6441, "ARG_OF_PERICENTER": 72.5283, "MEAN_ANOMALY": 75.9354, "EPHEMERIS_TYPE": 0, "CLASSIFICATION_TYPE": "U", "NORAD_CAT_ID": 29881, "ELEMENT_SET_NO": 999, "REV_AT_EPOCH": 93230, "BSTAR": 0.0032384016, "MEAN_MOTION_DOT": 3.147e-05, "MEAN_MOTION_DDOT": 0}, "tle": {"line1": "1 29881U 99025GB  25346.43075003  .00003147  00000+0  32384-2 0  9991", "line2": "2 29881  98.7225 318.6441 0292322  72.5283  75.9354 13.59612495932302"}}, "geometry": {"type": "Point", "coordinates": [-128.74160082851776, 81.27187151734702]}}, {"type": "Feature", "properties": {"norad_id": 29884, "name": "FENGYUN 1C DEB", "group": "fengyun-1c-debris", "lat": -76.1947527126465, "lon": 158.8134829069112, "alt_km": 784.5026932290275, "timestamp": "2025-12-14T16:47:40.955620+00:00", "meta": {"OBJECT_NAME": "FENGYUN 1C DEB", "OBJECT_ID": "1999-025GE", "EPOCH": "2025-12-13T15:08:46.053312", "MEAN_MOTION": 14.40302031, "ECCENTRICITY": 0.00445067, "INCLINATION": 99.6037, "RA_OF_ASC_NODE": 21.1707, "ARG_OF_PERICENTER": 134.471, "MEAN_ANOMALY": 346.9754, "EPHEMERIS_TYPE": 0, "CLASSIFICATION_TYPE": "U", "NORAD_CAT_ID": 29884, "ELEMENT_SET_NO": 999, "REV_AT_EPOCH": 98562, "BSTAR": 0.00087976436, "MEAN_MOTION_DOT": 2.768e-05, "MEAN_MOTION_DDOT": 0}, "tle": {"line1": "1 29884U 99025GE  25347.63108858  .00002768  00000+0  87976-3 0  9998", "line2": "2 29884  99.6037  21.1707 0044506 134.4710 346.9754 14.40302031985620"}}, "geometry": {"type": "Point", "coordinates": [158.8134829069112, -76.1947527126465]}}, {"type": "Feature", "properties": {"norad_id": 29885, "name": "FENGYUN 1C DEB", "group": "fengyun-1c-debris", "lat": -67.6028758976054, "lon": -55.50214219302888, "alt_km": 911.3843982266417, "timestamp": "2025-12-14T16:47:40.955630+00:00", "meta": {"OBJECT_NAME": "FENGYUN 1C DEB", "OBJECT_ID": "1999-025GF", "EPOCH": "2025-12-13T19:18:29.783232", "MEAN_MOTION": 14.13581868, "ECCENTRICITY": 0.01184223, "INCLINATION": 98.3554, "RA_OF_ASC_NODE": 282.7687, "ARG_OF_PERICENTER": 161.2, "MEAN_ANOMALY": 255.3403, "EPHEMERIS_TYPE": 0, "CLASSIFICATION_TYPE": "U", "NORAD_CAT_ID": 29885, "ELEMENT_SET_NO": 999, "REV_AT_EPOCH": 97472, "BSTAR": 0.00016870936, "MEAN_MOTION_DOT": 3.01e-06, "MEAN_MOTION_DDOT": 0}, "tle": {"line1": "1 29885U 99025GF  25347.80451138  .00000301  00000+0  16871-3 0  9997", "line2": "2 29885  98.3554 282.7687 0118422 161.2000 255.3403 14.13581868974722"}}, "geometry": {"type": "Point", "coordinates": [-55.50214219302888, -67.6028758976054]}}, {"type": "Feature", "properties": {"norad_id": 29887, "name": "FENGYUN 1C DEB", "group": "fengyun-1c-debris", "lat": -23.11857629425171, "lon": -113.42718700942618, "alt_km": 961.2042978073496, "timestamp": "2025-12-14T16:47:40.955640+00:00", "meta": {"OBJECT_NAME": "FENGYUN 1C DEB", "OBJECT_ID": "1999-025GH", "EPOCH": "2025-12-13T18:37:21.685152", "MEAN_MOTION": 14.33716169, "ECCENTRICITY": 0.02869142, "INCLINATION": 98.718, "RA_OF_ASC_NODE": 69.3967, "ARG_OF_PERICENTER": 356.0842, "MEAN_ANOMALY": 123.3392, "EPHEMERIS_TYPE": 0, "CLASSIFICATION_TYPE": "U", "NORAD_CAT_ID": 29887, "ELEMENT_SET_NO": 999, "REV_AT_EPOCH": 97989, "BSTAR": 0.00070467639, "MEAN_MOTION_DOT": 3.05e-05, "MEAN_MOTION_DDOT": 0}, "tle": {"line1": "1 29887U 99025GH  25347.77594543  .00003050  00000+0  70468-3 0  9999", "line2": "2 29887  98.7180  69.3967 0286914 356.0842 123.3392 14.33716169979893"}}, "geometry": {"type": "Point", "coordinates": [-113.42718700942618, -23.11857629425171]}}, {"type": "Feature", "properties": {"norad_id": 29888, "name": "FENGYUN 1C DEB", "group": "fengyun-1c-debris", "lat": -7.03837633830229, "lon": 0.34089040192282416, "alt_km": 1022.5724686447984, "timestamp": "2025-12-14T16:47:40.955650+00:00", "meta": {"OBJECT_NAME": "FENGYUN 1C DEB", "OBJECT_ID": "1999-025GJ", "EPOCH": "2025-12-13T23:00:46.633248", "MEAN_MOTION": 14.1985953, "ECCENTRICITY": 0.027502, "INCLINATION": 99.1917, "RA_OF_ASC_NODE": 180.7163, "ARG_OF_PERICENTER": 21.8964, "MEAN_ANOMALY": 339.3701, "EPHEMERIS_TYPE": 0, "CLASSIFICATION_TYPE": "U", "NORAD_CAT_ID": 29888, "ELEMENT_SET_NO": 999, "REV_AT_EPOCH": 97521, "BSTAR": 0.00045895786, "MEAN_MOTION_DOT": 1.369e-05, "MEAN_MOTION_DDOT": 0}, "tle": {"line1": "1 29888U 99025GJ  25347.95887307  .00001369  00000+0  45896-3 0  9991", "line2": "2 29888  99.1917 180.7163 0275020  21.8964 339.3701 14.19859530975210"}}, "geometry": {"type": "Point", "coordinates": [0.34089040192282416, -7.03837633830229]}}, {"type": "Feature", "properties": {"norad_id": 29889, "name": "FENGYUN 1C DEB", "group": "fengyun-1c-debris", "lat": -43.27570389796328, "lon": -82.83901560497475, "alt_km": 963.6947680329286, "timestamp": "2025-12-14T16:47:40.955660+00:00", "meta": {"OBJECT_NAME": "FENGYUN 1C DEB", "OBJECT_ID": "1999-025GK", "EPOCH": "2025-12-13T21:37:48.442368", "MEAN_MOTION": 14.13513172, "ECCENTRICITY": 0.01544269, "INCLINATION": 99.4768, "RA_OF_ASC_NODE": 105.3637, "ARG_OF_PERICENTER": 35.8474, "MEAN_ANOMALY": 87.2235, "EPHEMERIS_TYPE": 0, "CLASSIFICATION_TYPE": "U", "NORAD_CAT_ID": 29889, "ELEMENT_SET_NO": 999, "REV_AT_EPOCH": 97335, "BSTAR": 0.00035838445, "MEAN_MOTION_DOT": 7.07e-06, "MEAN_MOTION_DDOT": 0}, "tle": {"line1": "1 29889U 99025GK  25347.90125512  .00000707  00000+0  35838-3 0  9990", "line2": "2 29889  99.4768 105.3637 0154426  35.8474  87.2235 14.13513172973351"}}, "geometry": {"type": "Point", "coordinates": [-82.83901560497475, -43.27570389796328]}}, {"type": "Feature", "properties": {"norad_id": 29890, "name": "FENGYUN 1C DEB", "group": "fengyun-1c-debris", "lat": 24.52685716768129, "lon": -65.26519353633819, "alt_km": 813.7268723730476, "timestamp": "2025-12-14T16:47:40.955671+00:00", "meta": {"OBJECT_NAME": "FENGYUN 1C DEB", "OBJECT_ID": "1999-025GL", "EPOCH": "2025-12-13T21:30:29.521728", "MEAN_MOTION": 14.2304323, "ECCENTRICITY": 0.0014738, "INCLINATION": 99.4675, "RA_OF_ASC_NODE": 109.5048, "ARG_OF_PERICENTER": 70.4426, "MEAN_ANOMALY": 289.834, "EPHEMERIS_TYPE": 0, "CLASSIFICATION_TYPE": "U", "NORAD_CAT_ID": 29890, "ELEMENT_SET_NO": 999, "REV_AT_EPOCH": 97467, "BSTAR": 0.001077662, "MEAN_MOTION_DOT": 2.382e-05, "MEAN_MOTION_DDOT": 0}, "tle": {"line1": "1 29890U 99025GL  25347.89617502  .00002382  00000+0  10777-2 0  9990", "line2": "2 29890  99.4675 109.5048 0014738  70.4426 289.8340 14.23043230974672"}}, "geometry": {"type": "Point", "coordinates": [-65.26519353633819, 24.52685716768129]}}, {"type": "Feature", "properties": {"norad_id": 29891, "name": "FENGYUN 1C DEB", "group": "fengyun-1c-debris", "lat": -78.43638427058113, "lon": 39.38303271355086, "alt_km": 860.0217957364821, "timestamp": "2025-12-14T16:47:40.955681+00:00", "meta": {"OBJECT_NAME": "FENGYUN 1C DEB", "OBJECT_ID": "1999-025GM", "EPOCH": "2025-12-14T00:19:22.219968", "MEAN_MOTION": 13.99999035, "ECCENTRICITY": 0.00612204, "INCLINATION": 98.7265, "RA_OF_ASC_NODE": 350.0811, "ARG_OF_PERICENTER": 256.7439, "MEAN_ANOMALY": 163.4329, "EPHEMERIS_TYPE": 0, "CLASSIFICATION_TYPE": "U", "NORAD_CAT_ID": 29891, "ELEMENT_SET_NO": 999, "REV_AT_EPOCH": 96506, "BSTAR": 0.00055602291, "MEAN_MOTION_DOT": 7.89e-06, "MEAN_MOTION_DDOT": 0}, "tle": {"line1": "1 29891U 99025GM  25348.01345162  .00000789  00000+0  55602-3 0  9992", "line2": "2 29891  98.7265 350.0811 0061220 256.7439 163.4329 13.99999035965064"}}, "geometry": {"type": "Point", "coordinates": [39.38303271355086, -78.43638427058113]}}]}